{
  "norad_id": 53870,
  "name": "STARLINK-4732",
  "history": [
    {
      "epoch": "2026-03-28T15:17:00.252672Z",
      "apogee_km": 540.5562220178017,
      "perigee_km": 539.0038414358824,
      "latitude_deg": -1.4249897960521263e-05,
      "longitude_deg": 123.69253370176075,
      "height_km": 540.7467887409127,
      "semi_major_axis_km": 6917.917031726842,
      "eccentricity": 0.0001122,
      "inclination_deg": 53.2171,
      "raan_deg": 178.998,
      "arg_perigee_deg": 95.2301,
      "mean_anomaly_deg": 264.8819,
      "mean_motion_rev_day": 15.08828012
    },
    {
      "epoch": "2026-03-28T23:13:55.968096Z",
      "apogee_km": 540.5514671841702,
      "perigee_km": 538.9963208151994,
      "latitude_deg": 8.008533543523398e-06,
      "longitude_deg": 2.6472565020554955,
      "height_km": 540.6868000433843,
      "semi_major_axis_km": 6917.910893999685,
      "eccentricity": 0.0001124,
      "inclination_deg": 53.2173,
      "raan_deg": 177.5113,
      "arg_perigee_deg": 91.2448,
      "mean_anomaly_deg": 268.8673,
      "mean_motion_rev_day": 15.0883002
    },
    {
      "epoch": "2026-03-29T23:04:42.201120Z",
      "apogee_km": 540.5360968089153,
      "perigee_km": 538.9319808724294,
      "latitude_deg": -2.7185903700857122e-05,
      "longitude_deg": -0.48413443250206034,
      "height_km": 540.5518440734228,
      "semi_major_axis_km": 6917.871038840673,
      "eccentricity": 0.00011594,
      "inclination_deg": 53.2174,
      "raan_deg": 173.0519,
      "arg_perigee_deg": 84.4055,
      "mean_anomaly_deg": 275.7069,
      "mean_motion_rev_day": 15.08843059
    },
    {
      "epoch": "2026-03-30T11:47:47.157792Z",
      "apogee_km": 540.5320787223563,
      "perigee_km": 538.942766252535,
      "latitude_deg": 4.426653003661151e-05,
      "longitude_deg": 165.8437549943514,
      "height_km": 540.5804850739811,
      "semi_major_axis_km": 6917.874422487445,
      "eccentricity": 0.00011487,
      "inclination_deg": 53.2168,
      "raan_deg": 170.6727,
      "arg_perigee_deg": 86.1853,
      "mean_anomaly_deg": 273.9271,
      "mean_motion_rev_day": 15.08841952
    },
    {
      "epoch": "2026-03-31T11:38:34.534752Z",
      "apogee_km": 540.7231551891346,
      "perigee_km": 538.7772918709006,
      "latitude_deg": 1.0992391649933648e-05,
      "longitude_deg": 162.70508683012423,
      "height_km": 540.7159104850926,
      "semi_major_axis_km": 6917.887223530018,
      "eccentricity": 0.00014064,
      "inclination_deg": 53.2154,
      "raan_deg": 166.2108,
      "arg_perigee_deg": 94.141,
      "mean_anomaly_deg": 265.9743,
      "mean_motion_rev_day": 15.08837764
    },
    {
      "epoch": "2026-04-01T11:29:21.814080Z",
      "apogee_km": 540.5433539527703,
      "perigee_km": 538.9605409615933,
      "latitude_deg": -7.061134688381218e-05,
      "longitude_deg": 159.57109068740417,
      "height_km": 540.5927307937105,
      "semi_major_axis_km": 6917.8889474571815,
      "eccentricity": 0.0001144,
      "inclination_deg": 53.2163,
      "raan_deg": 161.7532,
      "arg_perigee_deg": 86.0065,
      "mean_anomaly_deg": 274.1057,
      "mean_motion_rev_day": 15.088372
    },
    {
      "epoch": "2026-04-02T14:30:54.257760Z",
      "apogee_km": 540.6273123228011,
      "perigee_km": 538.8211971064202,
      "latitude_deg": -4.883080958497799e-05,
      "longitude_deg": 108.01912075661588,
      "height_km": 540.5898766764608,
      "semi_major_axis_km": 6917.86125471461,
      "eccentricity": 0.00013054,
      "inclination_deg": 53.2154,
      "raan_deg": 156.6963,
      "arg_perigee_deg": 88.0989,
      "mean_anomaly_deg": 272.0152,
      "mean_motion_rev_day": 15.0884626
    },
    {
      "epoch": "2026-04-02T20:52:27.289056Z",
      "apogee_km": 540.569743864954,
      "perigee_km": 538.9281295321744,
      "latitude_deg": -1.83130278382971e-05,
      "longitude_deg": 11.17865118144772,
      "height_km": 540.5116427318284,
      "semi_major_axis_km": 6917.8859366985635,
      "eccentricity": 0.00011865,
      "inclination_deg": 53.2146,
      "raan_deg": 155.5046,
      "arg_perigee_deg": 80.6773,
      "mean_anomaly_deg": 279.4353,
      "mean_motion_rev_day": 15.08838185
    },
    {
      "epoch": "2026-04-03T11:10:55.915680Z",
      "apogee_km": 540.7115209810609,
      "perigee_km": 538.8038423436456,
      "latitude_deg": 8.382550879190063e-06,
      "longitude_deg": 153.29958678529394,
      "height_km": 540.7053202732618,
      "semi_major_axis_km": 6917.894681662353,
      "eccentricity": 0.00013788,
      "inclination_deg": 53.2166,
      "raan_deg": 152.8324,
      "arg_perigee_deg": 93.1278,
      "mean_anomaly_deg": 266.9872,
      "mean_motion_rev_day": 15.08835324
    }
  ]
}